{
  "type": "FeatureCollection",
  "features": [
    {
      "type": "Feature",
      "properties": {
        "norad_id": 29904,
        "name": "FENGYUN 1C DEB",
        "group": "fengyun-1c-debris",
        "lat": 30.696519599710022,
        "lon": -136.48689854344482,
        "alt_km": 839.248639094083,
        "timestamp": "2025-12-25T09:48:52.562519+00:00",
        "meta_object_name": "FENGYUN 1C DEB",
        "meta_object_id": "1999-025HA",
        "meta_epoch": "2025-12-24T19:48:36.150624",
        "meta_mean_motion": 14.44522787,
        "meta_eccentricity": 0.02074413,
        "meta_inclination": 99.0404,
        "meta_ra_of_asc_node": 37.4688,
        "meta_arg_of_pericenter": 282.6092,
        "meta_mean_anomaly": 75.1972,
        "meta_ephemeris_type": 0,
        "meta_classification_type": "U",
        "meta_norad_cat_id": 29904,
        "meta_element_set_no": 999,
        "meta_rev_at_epoch": 99238,
        "meta_bstar": 0.0003803036,
        "meta_mean_motion_dot": 1.647e-05,
        "meta_mean_motion_ddot": 0,
        "tle_line1": "1 29904U 99025HA  25358.82541841  .00001647  00000+0  38030-3 0  9999",
        "tle_line2": "2 29904  99.0404  37.4688 0207441 282.6092  75.1972 14.44522787992381"
      },
      "geometry": {
        "type": "Point",
        "coordinates": [
          -136.48689854344482,
          30.696519599710022
        ]
      }
    },
    {
      "type": "Feature",
      "properties": {
        "norad_id": 29906,
        "name": "FENGYUN 1C DEB",
        "group": "fengyun-1c-debris",
        "lat": -55.837260531439526,
        "lon": 116.21577728220791,
        "alt_km": 758.4555834560597,
        "timestamp": "2025-12-25T09:48:52.562529+00:00",
        "meta_object_name": "FENGYUN 1C DEB",
        "meta_object_id": "1999-025HC",
        "meta_epoch": "2025-12-24T19:10:15.041280",
        "meta_mean_motion": 14.49833149,
        "meta_eccentricity": 0.00362733,
        "meta_inclination": 98.7054,
        "meta_ra_of_asc_node": 102.5377,
        "meta_arg_of_pericenter": 113.7555,
        "meta_mean_anomaly": 246.7449,
        "meta_ephemeris_type": 0,
        "meta_classification_type": "U",
        "meta_norad_cat_id": 29906,
        "meta_element_set_no": 999,
        "meta_rev_at_epoch": 98332,
        "meta_bstar": 0.0022244423,
        "meta_mean_motion_dot": 8.618e-05,
        "meta_mean_motion_ddot": 0,
        "tle_line1": "1 29906U 99025HC  25358.79878520  .00008618  00000+0  22244-2 0  9998",
        "tle_line2": "2 29906  98.7054 102.5377 0036273 113.7555 246.7449 14.49833149983321"
      },
      "geometry": {
        "type": "Point",
        "coordinates": [
          116.21577728220791,
          -55.837260531439526
        ]
      }
    },
    {
      "type": "Feature",
      "properties": {
        "norad_id": 29907,
        "name": "FENGYUN 1C DEB",
        "group": "fengyun-1c-debris",
        "lat": 25.064587172847457,
        "lon": -109.41730672586512,
        "alt_km": 821.4500899767954,
        "timestamp": "2025-12-25T09:48:52.562539+00:00",
        "meta_object_name": "FENGYUN 1C DEB",
        "meta_object_id": "1999-025HD",
        "meta_epoch": "2025-12-24T16:47:32.823744",
        "meta_mean_motion": 14.11702039,
        "meta_eccentricity": 0.00848307,
        "meta_inclination": 99.1106,
        "meta_ra_of_asc_node": 65.5588,
        "meta_arg_of_pericenter": 216.2657,
        "meta_mean_anomaly": 296.5176,
        "meta_ephemeris_type": 0,
        "meta_classification_type": "U",
        "meta_norad_cat_id": 29907,
        "meta_element_set_no": 999,
        "meta_rev_at_epoch": 96767,
        "meta_bstar": 0.0015813205,
        "meta_mean_motion_dot": 2.932e-05,
        "meta_mean_motion_ddot": 0,
        "tle_line1": "1 29907U 99025HD  25358.69968546  .00002932  00000+0  15813-2 0  9993",
        "tle_line2": "2 29907  99.1106  65.5588 0084830 216.2657 296.5176 14.11702039967673"
      },
      "geometry": {
        "type": "Point",
        "coordinates": [
          -109.41730672586512,
          25.064587172847457
        ]
      }
    },
    {
      "type": "Feature",
      "properties": {
        "norad_id": 29909,
        "name": "FENGYUN 1C DEB",
        "group": "fengyun-1c-debris",
        "lat": -81.21311929489812,
        "lon": -155.7852382110984,
        "alt_km": 704.9631136798753,
        "timestamp": "2025-12-25T09:48:52.562561+00:00",
        "meta_object_name": "FENGYUN 1C DEB",
        "meta_object_id": "1999-025HF",
        "meta_epoch": "2025-12-24T06:25:38.915328",
        "meta_mean_motion": 14.5530483,
        "meta_eccentricity": 0.00380692,
        "meta_inclination": 98.6341,
        "meta_ra_of_asc_node": 102.4532,
        "meta_arg_of_pericenter": 338.7731,
        "meta_mean_anomaly": 74.9686,
        "meta_ephemeris_type": 0,
        "meta_classification_type": "U",
        "meta_norad_cat_id": 29909,
        "meta_element_set_no": 999,
        "meta_rev_at_epoch": 98573,
        "meta_bstar": 0.0021561397,
        "meta_mean_motion_dot": 9.398e-05,
        "meta_mean_motion_ddot": 0,
        "tle_line1": "1 29909U 99025HF  25358.26781152  .00009398  00000+0  21561-2 0  9994",
        "tle_line2": "2 29909  98.6341 102.4532 0038069 338.7731  74.9686 14.55304830985732"
      },
      "geometry": {
        "type": "Point",
        "coordinates": [
          -155.7852382110984,
          -81.21311929489812
        ]
      }
    },
    {
      "type": "Feature",
      "properties": {
        "norad_id": 29911,
        "name": "FENGYUN 1C DEB",
        "group": "fengyun-1c-debris",
        "lat": -18.87566558739693,
        "lon": -140.700977085632,
        "alt_km": 831.7252062326697,
        "timestamp": "2025-12-25T09:48:52.562574+00:00",
        "meta_object_name": "FENGYUN 1C DEB",
        "meta_object_id": "1999-025HH",
        "meta_epoch": "2025-12-24T14:58:16.463424",
        "meta_mean_motion": 14.18888295,
        "meta_eccentricity": 0.00274094,
        "meta_inclination": 98.7142,
        "meta_ra_of_asc_node": 41.5333,
        "meta_arg_of_pericenter": 118.0572,
        "meta_mean_anomaly": 32.3815,
        "meta_ephemeris_type": 0,
        "meta_classification_type": "U",
        "meta_norad_cat_id": 29911,
        "meta_element_set_no": 999,
        "meta_rev_at_epoch": 97599,
        "meta_bstar": 0.00066743347,
        "meta_mean_motion_dot": 1.352e-05,
        "meta_mean_motion_ddot": 0,
        "tle_line1": "1 29911U 99025HH  25358.62380166  .00001352  00000+0  66743-3 0  9991",
        "tle_line2": "2 29911  98.7142  41.5333 0027409 118.0572  32.3815 14.18888295975995"
      },
      "geometry": {
        "type": "Point",
        "coordinates": [
          -140.700977085632,
          -18.87566558739693
        ]
      }
    },
    {
      "type": "Feature",
      "properties": {
        "norad_id": 29912,
        "name": "FENGYUN 1C DEB",
        "group": "fengyun-1c-debris",
        "lat": 1.5749261527353455,
        "lon": -82.5794820740905,
        "alt_km": 720.0790807758513,
        "timestamp": "2025-12-25T09:48:52.562585+00:00",
        "meta_object_name": "FENGYUN 1C DEB",
        "meta_object_id": "1999-025HJ",
        "meta_epoch": "2025-12-24T18:36:28.145664",
        "meta_mean_motion": 14.43140344,
        "meta_eccentricity": 0.00432801,
        "meta_inclination": 98.7387,
        "meta_ra_of_asc_node": 96.5286,
        "meta_arg_of_pericenter": 184.2536,
        "meta_mean_anomaly": 304.124,
        "meta_ephemeris_type": 0,
        "meta_classification_type": "U",
        "meta_norad_cat_id": 29912,
        "meta_element_set_no": 999,
        "meta_rev_at_epoch": 98212,
        "meta_bstar": 0.0021897434,
        "meta_mean_motion_dot": 7.397e-05,
        "meta_mean_motion_ddot": 0,
        "tle_line1": "1 29912U 99025HJ  25358.77532576  .00007397  00000+0  21897-2 0  9997",
        "tle_line2": "2 29912  98.7387  96.5286 0043280 184.2536 304.1240 14.43140344982123"
      },
      "geometry": {
        "type": "Point",
        "coordinates": [
          -82.5794820740905,
          1.5749261527353455
        ]
      }
    },
    {
      "type": "Feature",
      "properties": {
        "norad_id": 29913,
        "name": "FENGYUN 1C DEB",
        "group": "fengyun-1c-debris",
        "lat": 74.62741717168089,
        "lon": -147.84878808073998,
        "alt_km": 891.422303814591,
        "timestamp": "2025-12-25T09:48:52.562595+00:00",
        "meta_object_name": "FENGYUN 1C DEB",
        "meta_object_id": "1999-025HK",
        "meta_epoch": "2025-12-23T23:19:42.503808",
        "meta_mean_motion": 14.07394433,
        "meta_eccentricity": 0.0061958,
        "meta_inclination": 98.7879,
        "meta_ra_of_asc_node": 356.5148,
        "meta_arg_of_pericenter": 239.3121,
        "meta_mean_anomaly": 147.5528,
        "meta_ephemeris_type": 0,
        "meta_classification_type": "U",
        "meta_norad_cat_id": 29913,
        "meta_element_set_no": 999,
        "meta_rev_at_epoch": 97123,
        "meta_bstar": 0.00019075,
        "meta_mean_motion_dot": 2.83e-06,
        "meta_mean_motion_ddot": 0,
        "tle_line1": "1 29913U 99025HK  25357.97201972  .00000283  00000+0  19075-3 0  9995",
        "tle_line2": "2 29913  98.7879 356.5148 0061958 239.3121 147.5528 14.07394433971238"
      },
      "geometry": {
        "type": "Point",
        "coordinates": [
          -147.84878808073998,
          74.62741717168089
        ]
      }
    }
  ]
}